[
    {
        "Altitude(m)": 610405.3158081032,
        "Argument of Periapsis(deg)": 0.0,
        "Eccentricity": 0.0,
        "Inclination(deg)": 60.0,
        "Latitude(deg)": 52.111251646865654,
        "Longitude(deg)": 12.477292758633784,
        "Mean Anomaly(deg)": -245.4545,
        "RAAN(deg)": 340.00000000000006,
        "Satellite Name": "Test1 1503",
        "Satellite Number": 1503,
        "Semi-Major Axis(m)": 6980739.136638005,
        "Time(s)": 0
    },
    {
        "Altitude(m)": 610321.8892421208,
        "Argument of Periapsis(deg)": 0.00010418945913296404,
        "Eccentricity": 0.0,
        "Inclination(deg)": 60.0,
        "Latitude(deg)": 51.74596793662219,
        "Longitude(deg)": 13.246187892153584,
        "Mean Anomaly(deg)": -244.83439385453818,
        "RAAN(deg)": 339.99957995086027,
        "Satellite Name": "Test1 1503",
        "Satellite Number": 1503,
        "Semi-Major Axis(m)": 6980739.136638005,
        "Time(s)": 10
    },
    {
        "Altitude(m)": 610237.0985206746,
        "Argument of Periapsis(deg)": 0.0002083789182659281,
        "Eccentricity": 0.0,
        "Inclination(deg)": 60.0,
        "Latitude(deg)": 51.37516513183021,
        "Longitude(deg)": 14.002030514586028,
        "Mean Anomaly(deg)": -244.21428770907633,
        "RAAN(deg)": 339.99915990172053,
        "Satellite Name": "Test1 1503",
        "Satellite Number": 1503,
        "Semi-Major Axis(m)": 6980739.136638005,
        "Time(s)": 20
    },
    {
        "Altitude(m)": 610150.9938243618,
        "Argument of Periapsis(deg)": 0.00031256837739889213,
        "Eccentricity": 0.0,
        "Inclination(deg)": 60.0,
        "Latitude(deg)": 50.99900181708018,
        "Longitude(deg)": 14.745013751279899,
        "Mean Anomaly(deg)": -243.59418156361454,
        "RAAN(deg)": 339.9987398525808,
        "Satellite Name": "Test1 1503",
        "Satellite Number": 1503,
        "Semi-Major Axis(m)": 6980739.136638005,
        "Time(s)": 30
    },
    {
        "Altitude(m)": 610063.6261962983,
        "Argument of Periapsis(deg)": 0.0004167578365318562,
        "Eccentricity": 0.0,
        "Inclination(deg)": 60.0,
        "Latitude(deg)": 50.61763282306672,
        "Longitude(deg)": 15.475338429552382,
        "Mean Anomaly(deg)": -242.9740754181527,
        "RAAN(deg)": 339.99831980344106,
        "Satellite Name": "Test1 1503",
        "Satellite Number": 1503,
        "Semi-Major Axis(m)": 6980739.136638005,
        "Time(s)": 40
    },
    {
        "Altitude(m)": 609975.0475174814,
        "Argument of Periapsis(deg)": 0.0005209472956648203,
        "Eccentricity": 0.0,
        "Inclination(deg)": 60.0,
        "Latitude(deg)": 50.23120920145148,
        "Longitude(deg)": 16.193211020043076,
        "Mean Anomaly(deg)": -242.3539692726908,
        "RAAN(deg)": 339.99789975430133,
        "Satellite Name": "Test1 1503",
        "Satellite Number": 1503,
        "Semi-Major Axis(m)": 6980739.136638005,
        "Time(s)": 50
    },
    {
        "Altitude(m)": 609885.310481738,
        "Argument of Periapsis(deg)": 0.0006251367547977843,
        "Eccentricity": 0.0,
        "Inclination(deg)": 60.0,
        "Latitude(deg)": 49.839878214390495,
        "Longitude(deg)": 16.89884316172128,
        "Mean Anomaly(deg)": -241.733863127229,
        "RAAN(deg)": 339.99747970516154,
        "Satellite Name": "Test1 1503",
        "Satellite Number": 1503,
        "Semi-Major Axis(m)": 6980739.136638005,
        "Time(s)": 60
    },
    {
        "Altitude(m)": 609794.4685702388,
        "Argument of Periapsis(deg)": 0.0007293262139307483,
        "Eccentricity": 0.0,
        "Inclination(deg)": 60.0,
        "Latitude(deg)": 49.44378333729247,
        "Longitude(deg)": 17.592451256152504,
        "Mean Anomaly(deg)": -241.11375698176715,
        "RAAN(deg)": 339.99705965602186,
        "Satellite Name": "Test1 1503",
        "Satellite Number": 1503,
        "Semi-Major Axis(m)": 6980739.136638005,
        "Time(s)": 70
    },
    {
        "Altitude(m)": 609702.5760255948,
        "Argument of Periapsis(deg)": 0.0008335156730637124,
        "Eccentricity": 0.0,
        "Inclination(deg)": 60.0,
        "Latitude(deg)": 49.0430642734487,
        "Longitude(deg)": 18.274254616210246,
        "Mean Anomaly(deg)": -240.4936508363053,
        "RAAN(deg)": 339.9966396068821,
        "Satellite Name": "Test1 1503",
        "Satellite Number": 1503,
        "Semi-Major Axis(m)": 6980739.136638005,
        "Time(s)": 80
    },
    {
        "Altitude(m)": 609609.6878255813,
        "Argument of Periapsis(deg)": 0.0009377051321966765,
        "Eccentricity": 0.0,
        "Inclination(deg)": 60.0,
        "Latitude(deg)": 48.637856979258395,
        "Longitude(deg)": 18.94447519271477,
        "Mean Anomaly(deg)": -239.87354469084354,
        "RAAN(deg)": 339.99621955774234,
        "Satellite Name": "Test1 1503",
        "Satellite Number": 1503,
        "Semi-Major Axis(m)": 6980739.136638005,
        "Time(s)": 90
    },
    {
        "Altitude(m)": 609515.859656449,
        "Argument of Periapsis(deg)": 0.0010418945913296407,
        "Eccentricity": 0.0,
        "Inclination(deg)": 60.0,
        "Latitude(deg)": 48.22829369884428,
        "Longitude(deg)": 19.603337363599135,
        "Mean Anomaly(deg)": -239.2534385453817,
        "RAAN(deg)": 339.99579950860254,
        "Satellite Name": "Test1 1503",
        "Satellite Number": 1503,
        "Semi-Major Axis(m)": 6980739.136638005,
        "Time(s)": 100
    },
    {
        "Altitude(m)": 609421.1478858631,
        "Argument of Periapsis(deg)": 0.0011460840504626045,
        "Eccentricity": 0.0,
        "Inclination(deg)": 60.0,
        "Latitude(deg)": 47.8145030069326,
        "Longitude(deg)": 20.251066270006586,
        "Mean Anomaly(deg)": -238.63333239991982,
        "RAAN(deg)": 339.99537945946287,
        "Satellite Name": "Test1 1503",
        "Satellite Number": 1503,
        "Semi-Major Axis(m)": 6980739.136638005,
        "Time(s)": 110
    },
    {
        "Altitude(m)": 609325.6095354956,
        "Argument of Periapsis(deg)": 0.0012502735095955685,
        "Eccentricity": 0.0,
        "Inclination(deg)": 60.0,
        "Latitude(deg)": 47.39660985895688,
        "Longitude(deg)": 20.887887722218583,
        "Mean Anomaly(deg)": -238.01322625445806,
        "RAAN(deg)": 339.9949594103231,
        "Satellite Name": "Test1 1503",
        "Satellite Number": 1503,
        "Semi-Major Axis(m)": 6980739.136638005,
        "Time(s)": 120
    },
    {
        "Altitude(m)": 609229.3022532318,
        "Argument of Periapsis(deg)": 0.0013544629687285324,
        "Eccentricity": 0.0,
        "Inclination(deg)": 60.0,
        "Latitude(deg)": 46.97473564741635,
        "Longitude(deg)": 21.514028159596105,
        "Mean Anomaly(deg)": -237.39312010899621,
        "RAAN(deg)": 339.99453936118334,
        "Satellite Name": "Test1 1503",
        "Satellite Number": 1503,
        "Semi-Major Axis(m)": 6980739.136638005,
        "Time(s)": 130
    },
    {
        "Altitude(m)": 609132.2842850738,
        "Argument of Periapsis(deg)": 0.0014586524278614966,
        "Eccentricity": 0.0,
        "Inclination(deg)": 60.0,
        "Latitude(deg)": 46.548998263594214,
        "Longitude(deg)": 22.129713148680988,
        "Mean Anomaly(deg)": -236.77301396353437,
        "RAAN(deg)": 339.9941193120436,
        "Satellite Name": "Test1 1503",
        "Satellite Number": 1503,
        "Semi-Major Axis(m)": 6980739.136638005,
        "Time(s)": 140
    },
    {
        "Altitude(m)": 609034.6144466866,
        "Argument of Periapsis(deg)": 0.0015628418869944607,
        "Eccentricity": 0.0,
        "Inclination(deg)": 60.0,
        "Latitude(deg)": 46.11951216382093,
        "Longitude(deg)": 22.735167442218767,
        "Mean Anomaly(deg)": -236.15290781807255,
        "RAAN(deg)": 339.9936992629039,
        "Satellite Name": "Test1 1503",
        "Satellite Number": 1503,
        "Semi-Major Axis(m)": 6980739.136638005,
        "Time(s)": 150
    },
    {
        "Altitude(m)": 608936.3520946396,
        "Argument of Periapsis(deg)": 0.0016670313461274247,
        "Eccentricity": 0.0,
        "Inclination(deg)": 60.0,
        "Latitude(deg)": 45.68638843953219,
        "Longitude(deg)": 23.330615083266697,
        "Mean Anomaly(deg)": -235.5328016726107,
        "RAAN(deg)": 339.99327921376414,
        "Satellite Name": "Test1 1503",
        "Satellite Number": 1503,
        "Semi-Major Axis(m)": 6980739.136638005,
        "Time(s)": 160
    },
    {
        "Altitude(m)": 608837.5570973607,
        "Argument of Periapsis(deg)": 0.0017712208052603888,
        "Eccentricity": 0.0,
        "Inclination(deg)": 60.0,
        "Latitude(deg)": 45.24973489043579,
        "Longitude(deg)": 23.916278038601074,
        "Mean Anomaly(deg)": -234.91269552714894,
        "RAAN(deg)": 339.9928591646244,
        "Satellite Name": "Test1 1503",
        "Satellite Number": 1503,
        "Semi-Major Axis(m)": 6980739.136638005,
        "Time(s)": 170
    },
    {
        "Altitude(m)": 608738.2898057536,
        "Argument of Periapsis(deg)": 0.001875410264393353,
        "Eccentricity": 0.0,
        "Inclination(deg)": 60.0,
        "Latitude(deg)": 44.809656100172994,
        "Longitude(deg)": 24.492376384333298,
        "Mean Anomaly(deg)": -234.2925893816871,
        "RAAN(deg)": 339.9924391154846,
        "Satellite Name": "Test1 1503",
        "Satellite Number": 1503,
        "Semi-Major Axis(m)": 6980739.136638005,
        "Time(s)": 180
    },
    {
        "Altitude(m)": 608638.6110236021,
        "Argument of Periapsis(deg)": 0.0019795997235263173,
        "Eccentricity": 0.0,
        "Inclination(deg)": 60.0,
        "Latitude(deg)": 44.366253513913676,
        "Longitude(deg)": 25.05912852810582,
        "Mean Anomaly(deg)": -233.6724832362253,
        "RAAN(deg)": 339.99201906634494,
        "Satellite Name": "Test1 1503",
        "Satellite Number": 1503,
        "Semi-Major Axis(m)": 6980739.136638005,
        "Time(s)": 190
    }
]